[{"OBJECT_NAME":"STARLINK-31401","OBJECT_ID":"2024-064V","EPOCH":"2026-03-09T06:49:25.049280","MEAN_MOTION":15.27579016,"ECCENTRICITY":0.00014139,"INCLINATION":43.0046,"RA_OF_ASC_NODE":51.5445,"ARG_OF_PERICENTER":251.7508,"MEAN_ANOMALY":108.319,"EPHEMERIS_TYPE":0,"CLASSIFICATION_TYPE":"U","NORAD_CAT_ID":59417,"ELEMENT_SET_NO":999,"REV_AT_EPOCH":10899,"BSTAR":-2.5367148e-5,"MEAN_MOTION_DOT":-9.6e-6,"MEAN_MOTION_DDOT":0},{"OBJECT_NAME":"ARCSTONE","OBJECT_ID":"2025-135N","EPOCH":"2026-03-09T21:21:29.017152","MEAN_MOTION":15.28638458,"ECCENTRICITY":0.00041199,"INCLINATION":97.4495,"RA_OF_ASC_NODE":185.9194,"ARG_OF_PERICENTER":166.7863,"MEAN_ANOMALY":193.3485,"EPHEMERIS_TYPE":0,"CLASSIFICATION_TYPE":"U","NORAD_CAT_ID":64540,"ELEMENT_SET_NO":999,"REV_AT_EPOCH":3984,"BSTAR":0.00094899777,"MEAN_MOTION_DOT":0.00026427,"MEAN_MOTION_DDOT":0}]
